[{"OBJECT_NAME":"HAIYANG-1B","OBJECT_ID":"2007-010A","EPOCH":"2026-03-09T22:15:19.251360","MEAN_MOTION":14.3099952,"ECCENTRICITY":0.00143047,"INCLINATION":98.343,"RA_OF_ASC_NODE":54.6595,"ARG_OF_PERICENTER":132.0498,"MEAN_ANOMALY":228.1905,"EPHEMERIS_TYPE":0,"CLASSIFICATION_TYPE":"U","NORAD_CAT_ID":31113,"ELEMENT_SET_NO":999,"REV_AT_EPOCH":98643,"BSTAR":7.2604842e-5,"MEAN_MOTION_DOT":1.5e-6,"MEAN_MOTION_DDOT":0},{"OBJECT_NAME":"FENGYUN 1C DEB","OBJECT_ID":"1999-025AJK","EPOCH":"2026-03-09T08:00:54.953568","MEAN_MOTION":14.58983073,"ECCENTRICITY":0.01339605,"INCLINATION":98.9977,"RA_OF_ASC_NODE":215.6769,"ARG_OF_PERICENTER":340.6824,"MEAN_ANOMALY":18.9322,"EPHEMERIS_TYPE":0,"CLASSIFICATION_TYPE":"U","NORAD_CAT_ID":30521,"ELEMENT_SET_NO":999,"REV_AT_EPOCH":842,"BSTAR":0.00049853942,"MEAN_MOTION_DOT":2.588e-5,"MEAN_MOTION_DDOT":0}]
